NORAD_CAT_ID,OBJECT_NAME,OBJECT_TYPE,EPOCH,MEAN_MOTION,ECCENTRICITY,INCLINATION,RA_OF_ASC_NODE,ARG_OF_PERICENTER,MEAN_ANOMALY,BSTAR,MEAN_MOTION_DOT,MEAN_MOTION_DDOT,TLE_LINE0,TLE_LINE1,TLE_LINE2,SEMIMAJOR_AXIS,PERIOD,APOGEE,PERIGEE,DECAYED
53840.0,STARLINK-4766,PAYLOAD,2023-01-15 02:40:20,15.08833972,0.0001458,53.2181,54.8211,96.9286,263.1872,-1.5716e-05,-5.38e-06,0.0,0 STARLINK-4766,1 53840U 22114Y   23015.11135367 -.00000538  00000-0 -15716-4 0  9990,2 53840  53.2181  54.8211 0001458  96.9286 263.1872 15.08833972 18881,6917.899,95.438,540.7719999999999,538.755,0.0
53840.0,STARLINK-4766,PAYLOAD,2023-01-15 12:12:39,15.08841038,0.0001465999999999,53.2184,53.0379,96.4054,263.7105,-1.1463e-05,-4.7e-06,0.0,0 STARLINK-4766,1 53840U 22114Y   23015.50878906 -.00000470  00000-0 -11463-4 0  9996,2 53840  53.2184  53.0379 0001466  96.4054 263.7105 15.08841038 18941,6917.877,95.437,540.756,538.7280000000001,0.0
53840.0,STARLINK-4766,PAYLOAD,2023-01-16 07:17:15,15.08852036,0.0001615,53.2197,49.4723,105.6106,254.5064,0.00013051,1.7899999999999998e-05,0.0,0 STARLINK-4766,1 53840U 22114Y   23016.30365599  .00001790  00000-0  13051-3 0  9992,2 53840  53.2197  49.4723 0001615 105.6106 254.5064 15.08852036 19060,6917.844,95.437,540.826,538.591,0.0
53840.0,STARLINK-4766,PAYLOAD,2023-01-16 12:03:24,15.08865545,0.0001356,53.2194,48.576,95.8413,264.2734,0.0001544,2.172e-05,0.0,0 STARLINK-4766,1 53840U 22114Y   23016.50236481  .00002172  00000-0  15440-3 0  9990,2 53840  53.2194  48.5760 0001356  95.8413 264.2734 15.08865545 19095,6917.802,95.436,540.605,538.729,0.0
53840.0,STARLINK-4766,PAYLOAD,2023-01-17 02:21:56,15.08813072,0.0001042,53.2195,45.9014,96.9471,263.164,-0.00022324,-3.836e-05,0.0,0 STARLINK-4766,1 53840U 22114Y   23017.09857596 -.00003836  00000-0 -22324-3 0  9990,2 53840  53.2195  45.9014 0001042  96.9471 263.1640 15.08813072 19189,6917.963000000001,95.439,540.549,539.107,0.0
53840.0,STARLINK-4766,PAYLOAD,2023-01-17 08:43:29,15.0881959,0.0001137,53.2181,44.7111,96.2908,263.8214,-0.00014927,-2.661e-05,0.0,0 STARLINK-4766,1 53840U 22114Y   23017.36353281 -.00002661  00000-0 -14927-3 0  9997,2 53840  53.2181  44.7111 0001137  96.2908 263.8214 15.08819590 19222,6917.943,95.439,540.594,539.021,0.0
53840.0,STARLINK-4766,PAYLOAD,2023-01-18 00:37:20,15.0883026,0.0001164,53.2198,41.7346,101.0354,259.0769,-6.985e-05,-1.399e-05,0.0,0 STARLINK-4766,1 53840U 22114Y   23018.02592777 -.00001399  00000-0 -69850-4 0  9999,2 53840  53.2198  41.7346 0001164 101.0354 259.0769 15.08830260 19327,6917.91,95.438,540.58,538.97,0.0
53840.0,STARLINK-4766,PAYLOAD,2023-01-18 08:34:14,15.08861178,0.0001147,53.2195,40.25,92.3814,267.731,-1.3121e-07,-2.9e-06,0.0,0 STARLINK-4766,1 53840U 22114Y   23018.35710686 -.00000290  00000-0 -13121-6 0  9997,2 53840  53.2195  40.2500 0001147  92.3814 267.7310 15.08861178 19379,6917.816,95.436,540.474,538.887,0.0
53840.0,STARLINK-4766,PAYLOAD,2023-01-18 18:06:32,15.08861673,0.0001153,53.2195,38.4658,92.0353,268.0771,1.5849e-05,-3.5e-07,0.0,0 STARLINK-4766,1 53840U 22114Y   23018.75454222 -.00000035  00000-0  15849-4 0  9995,2 53840  53.2195  38.4658 0001153  92.0353 268.0771 15.08861673 19975,6917.814,95.436,540.477,538.882,0.0
53840.0,STARLINK-4766,PAYLOAD,2023-01-19 11:35:46,15.08851894,0.0001828,53.2209,35.1924,109.9213,250.1977,0.00021606,3.153e-05,0.0,0 STARLINK-4766,1 53840U 22114Y   23019.48318223  .00003153  00000-0  21606-3 0  9996,2 53840  53.2209  35.1924 0001828 109.9213 250.1977 15.08851894 19540,6917.844,95.437,540.974,538.444,0.0
53840.0,STARLINK-4766,PAYLOAD,2023-01-19 17:57:20,15.08839578,0.0001455,53.2191,34.0039,63.4379,296.6762,7.1905e-05,8.57e-06,0.0,0 STARLINK-4766,1 53840U 22114Y   23019.74815843  .00000857  00000-0  71905-4 0  9991,2 53840  53.2191  34.0039 0001455  63.4379 296.6762 15.08839578 19584,6917.882,95.438,540.753,538.74,0.0
53840.0,STARLINK-4766,PAYLOAD,2023-01-20 01:54:17,15.0883209,0.0001153,53.2198,32.5189,86.71799999999999,273.3944,-0.00021535,-3.713e-05,0.0,0 STARLINK-4766,1 53840U 22114Y   23020.07937111 -.00003713  00000-0 -21535-3 0  9991,2 53840  53.2198  32.5189 0001153  86.7180 273.3944 15.08832090 19635,6917.905,95.438,540.567,538.972,0.0
53840.0,STARLINK-4766,PAYLOAD,2023-01-20 08:15:49,15.08838071,0.00016,53.2212,31.3277,106.5101,253.6067,-0.00014313,-2.565e-05,0.0,0 STARLINK-4766,1 53840U 22114Y   23020.34432497 -.00002565  00000-0 -14313-3 0  9998,2 53840  53.2212  31.3277 0001600 106.5101 253.6067 15.08838071 19674,6917.886,95.438,540.8580000000001,538.644,0.0
53840.0,STARLINK-4766,PAYLOAD,2023-01-21 06:31:13,15.08841392,0.0001104,53.2185,27.168000000000003,94.4724,265.6395,-4.7076e-05,-1.037e-05,0.0,0 STARLINK-4766,1 53840U 22114Y   23021.27167876 -.00001037  00000-0 -47076-4 0  9993,2 53840  53.2185  27.1680 0001104  94.4724 265.6395 15.08841392 19812,6917.876,95.437,540.505,538.977,0.0
53840.0,STARLINK-4766,PAYLOAD,2023-01-21 09:41:58,15.08856644,0.0001283,53.2203,26.5705,97.3309,262.7829,-3.2089000000000004e-05,-7.99e-06,0.0,0 STARLINK-4766,1 53840U 22114Y   23021.40414853 -.00000799  00000-0 -32089-4 0  9990,2 53840  53.2203  26.5705 0001283  97.3309 262.7829 15.08856644 19831,6917.83,95.437,540.582,538.807,0.0
53840.0,STARLINK-4766,PAYLOAD,2023-01-22 06:21:59,15.08833677,0.0001161,53.2204,22.7054,92.8348,267.2778,0.00016325,2.311e-05,0.0,0 STARLINK-4766,1 53840U 22114Y   23022.26527517  .00002311  00000-0  16325-3 0  9991,2 53840  53.2204  22.7054 0001161  92.8348 267.2778 15.08833677 19963,6917.9,95.438,540.568,538.962,0.0
53840.0,STARLINK-4766,PAYLOAD,2023-01-22 09:32:44,15.08853067,0.0001229,53.22,22.1127,95.1736,264.9396,0.00021996,3.216e-05,0.0,0 STARLINK-4766,1 53840U 22114Y   23022.39774206  .00003216  00000-0  21996-3 0  9999,2 53840  53.2200  22.1127 0001229  95.1736 264.9396 15.08853067 19983,6917.84,95.437,540.556,538.855,0.0
53840.0,STARLINK-4766,PAYLOAD,2023-01-22 17:29:42,15.08826171,0.0001865999999999,53.2203,20.6266,81.7565,278.3639,-1.6014e-05,-5.43e-06,0.0,0 STARLINK-4766,1 53840U 22114Y   23022.72896923 -.00000543  00000-0 -16014-4 0  9995,2 53840  53.2203  20.6266 0001866  81.7565 278.3639 15.08826171 20034,6917.923000000001,95.438,541.0790000000001,538.497,0.0
53840.0,STARLINK-4766,PAYLOAD,2023-01-23 09:23:33,15.08838061,0.0001250999999999,53.2199,17.6506,89.8941,270.2195,-5.1917e-05,-1.114e-05,0.0,0 STARLINK-4766,1 53840U 22114Y   23023.39136501 -.00001114  00000-0 -51917-4 0  9994,2 53840  53.2199  17.6506 0001251  89.8941 270.2195 15.08838061 20136,6917.886,95.438,540.617,538.886,0.0
53840.0,STARLINK-4766,PAYLOAD,2023-01-24 06:03:33,15.08852975,0.000127,53.2195,13.7849,96.0771,264.0366,1.373e-05,-6.9e-07,0.0,0 STARLINK-4766,1 53840U 22114Y   23024.25247510 -.00000069  00000-0  13730-4 0  9991,2 53840  53.2195  13.7849 0001270  96.0771 264.0366 15.08852975 20266,6917.840999999999,95.437,540.5840000000001,538.827,0.0
53840.0,STARLINK-4766,PAYLOAD,2023-01-24 15:35:53,15.08844637,0.0001564,53.22,11.9988,79.4385,280.6784,-1.9875e-05,-6.04e-06,0.0,0 STARLINK-4766,1 53840U 22114Y   23024.64992116 -.00000604  00000-0 -19875-4 0  9995,2 53840  53.2200  11.9988 0001564  79.4385 280.6784 15.08844637 20320,6917.866,95.437,540.813,538.649,0.0
53840.0,STARLINK-4766,PAYLOAD,2023-01-25 05:54:21,15.08836417,0.0001097,53.2198,9.3277,97.6935,262.4182,9.3208e-05,1.196e-05,0.0,0 STARLINK-4766,1 53840U 22114Y   23025.24608574  .00001196  00000-0  93208-4 0  9991,2 53840  53.2198   9.3277 0001097  97.6935 262.4182 15.08836417 20419,6917.891,95.438,540.515,538.997,0.0
53840.0,STARLINK-4766,PAYLOAD,2023-01-25 15:26:40,15.0884054,0.0001026,53.2192,7.5441,96.16,263.9509,1.9255e-05,1.9e-07,0.0,0 STARLINK-4766,1 53840U 22114Y   23025.64352582  .00000019  00000-0  19255-4 0  9993,2 53840  53.2192   7.5441 0001026  96.1600 263.9509 15.08840540 21019,6917.879,95.438,540.4540000000001,539.034,0.0
53840.0,STARLINK-4766,PAYLOAD,2023-01-26 08:55:54,15.08849376,0.0001082,53.2194,4.2717,97.3059,262.8056,6.3722e-05,7.27e-06,0.0,0 STARLINK-4766,1 53840U 22114Y   23026.37216051  .00000727  00000-0  63722-4 0  9998,2 53840  53.2194   4.2717 0001082  97.3059 262.8056 15.08849376 21127,6917.852,95.437,540.465,538.9680000000001,0.0
53840.0,STARLINK-4766,PAYLOAD,2023-01-26 23:14:24,15.08829547,0.0001117,53.2186,1.5972,92.9739,267.1381,5.3988e-05,5.71e-06,0.0,0 STARLINK-4766,1 53840U 22114Y   23026.96833486  .00000571  00000-0  53988-4 0  9990,2 53840  53.2186   1.5972 0001117  92.9739 267.1381 15.08829547 20672,6917.911999999999,95.438,540.55,539.005,0.0
53840.0,STARLINK-4766,PAYLOAD,2023-01-27 05:35:55,15.08845878,9.68e-05,53.2199,0.4051,100.3604,259.7497,8.3055e-05,1.035e-05,0.0,0 STARLINK-4766,1 53840U 22114Y   23027.23328307  .00001035  00000-0  83055-4 0  9996,2 53840  53.2199   0.4051 0000968 100.3604 259.7497 15.08845878 20715,6917.861999999999,95.437,540.3969999999999,539.058,0.0
53840.0,STARLINK-4766,PAYLOAD,2023-01-27 07:11:18,15.08848828,0.0001004,53.2197,0.1075,107.9748,252.1354,0.0001054,1.39e-05,0.0,0 STARLINK-4766,1 53840U 22114Y   23027.29951996  .00001390  00000-0  10540-3 0  9990,2 53840  53.2197   0.1075 0001004 107.9748 252.1354 15.08848828 21268,6917.853,95.437,540.413,539.024,0.0
53840.0,STARLINK-4766,PAYLOAD,2023-01-28 05:26:43,15.08838799,0.0001115,53.22,355.9445,97.3252,262.7867,1.3801e-05,-6.8e-07,0.0,0 STARLINK-4766,1 53840U 22114Y   23028.22689151 -.00000068  00000-0  13801-4 0  9991,2 53840  53.2200 355.9445 0001115  97.3252 262.7867 15.08838799 20867,6917.884,95.438,540.52,538.9780000000001,0.0
53840.0,STARLINK-4766,PAYLOAD,2023-01-28 07:02:06,15.08841073,0.0001093,53.2198,355.6465,97.4127,262.6989,2.6612e-05,1.36e-06,0.0,0 STARLINK-4766,1 53840U 22114Y   23028.29312958  .00000136  00000-0  26612-4 0  9995,2 53840  53.2198 355.6465 0001093  97.4127 262.6989 15.08841073 21414,6917.877,95.437,540.498,538.986,0.0
